COMMENT,ORIGINATOR,NORAD_CAT_ID,OBJECT_NAME,OBJECT_TYPE,CLASSIFICATION_TYPE,INTLDES,EPOCH,EPOCH_MICROSECONDS,MEAN_MOTION,ECCENTRICITY,INCLINATION,RA_OF_ASC_NODE,ARG_OF_PERICENTER,MEAN_ANOMALY,EPHEMERIS_TYPE,ELEMENT_SET_NO,REV_AT_EPOCH,BSTAR,MEAN_MOTION_DOT,MEAN_MOTION_DDOT,FILE,TLE_LINE0,TLE_LINE1,TLE_LINE2,OBJECT_ID,OBJECT_NUMBER,SEMIMAJOR_AXIS,PERIOD,APOGEE,PERIGEE,DECAYED
"GENERATED VIA SPACETRACK.ORG API","18 SPCS","53903","STARLINK-5022","PAYLOAD","U","22119T","2022-11-05 14:00:01","999872","15.69973939","0.0002547","53.2175","47.0349","253.0191","334.5367","0","999","130","-0.010395","-0.01135118","0","3645109","0 STARLINK-5022","1 53903U 22119T   22309.58335648 -.01135118  00000-0 -10395-1 0  9994","2 53903  53.2175  47.0349 0002547 253.0191 334.5367 15.69973939  1307","2022-119T","53903","6737.109","91.721","360.690","357.258","0"
"GENERATED VIA SPACETRACK.ORG API","18 SPCS","53903","STARLINK-5022","PAYLOAD","U","22119T","2022-11-05 22:00:01","999584","15.6918086","0.0000327","53.217","45.3933","39.4907","272.5967","0","999","703","-0.011014","-0.01179007","0","3646149","0 STARLINK-5022","1 53903U 22119T   22309.91668981 -.01179007  00000-0 -11014-1 0  9994","2 53903  53.2170  45.3933 0000327  39.4907 272.5967 15.69180860  7033","2022-119T","53903","6739.378","91.768","361.464","361.023","0"
"GENERATED VIA SPACETRACK.ORG API","18 SPCS","53903","STARLINK-5022","PAYLOAD","U","22119T","2022-11-06 14:00:01","224","15.67533208","0.0001141","53.2174","42.1178","91.5343","26.6454","0","999","130","-0.011491","-0.01152134","0","3647066","0 STARLINK-5022","1 53903U 22119T   22310.58334491 -.01152134  00000-0 -11491-1 0  9996","2 53903  53.2174  42.1178 0001141  91.5343  26.6454 15.67533208  1300","2022-119T","53903","6744.100","91.864","366.735","365.196","0"
"GENERATED VIA SPACETRACK.ORG API","18 SPCS","53903","STARLINK-5022","PAYLOAD","U","22119T","2022-11-07 06:00:00","999648","15.65894666","0.0001126","53.2171","38.8476","84.9879","195.4353","0","999","724","-0.012089","-0.01135479","0","3647377","0 STARLINK-5022","1 53903U 22119T   22311.25001157 -.01135479  00000-0 -12089-1 0  9998","2 53903  53.2171  38.8476 0001126  84.9879 195.4353 15.65894666  7241","2022-119T","53903","6748.804","91.960","371.429","369.909","0"
"GENERATED VIA SPACETRACK.ORG API","18 SPCS","53903","STARLINK-5022","PAYLOAD","U","22119T","2022-11-07 22:00:00","999936","15.64268013","0.0001045","53.2175","35.5881","94.8762","343.8727","0","999","735","-0.012931","-0.01137463","0","3647996","0 STARLINK-5022","1 53903U 22119T   22311.91667824 -.01137463  00000-0 -12931-1 0  9991","2 53903  53.2175  35.5881 0001045  94.8762 343.8727 15.64268013  7356","2022-119T","53903","6753.482","92.056","376.053","374.641","0"
"GENERATED VIA SPACETRACK.ORG API","18 SPCS","53903","STARLINK-5022","PAYLOAD","U","22119T","2022-11-07 22:00:00","999936","15.64268013","0.0001045","53.2175","35.5881","94.8762","343.8727","0","999","130","-0.012931","-0.01137463","0","3648233","0 STARLINK-5022","1 53903U 22119T   22311.91667824 -.01137463  00000-0 -12931-1 0  9991","2 53903  53.2175  35.5881 0001045  94.8762 343.8727 15.64268013  1305","2022-119T","53903","6753.482","92.056","376.053","374.641","0"
"GENERATED VIA SPACETRACK.ORG API","18 SPCS","53903","STARLINK-5022","PAYLOAD","U","22119T","2022-11-08 12:00:00","999648","15.62938177","0.000135","53.2175","32.7447","75.4716","48.5423","0","999","744","-0.015038","-0.01242822","0","3648725","0 STARLINK-5022","1 53903U 22119T   22312.50001157 -.01242822  00000-0 -15038-1 0  9995","2 53903  53.2175  32.7447 0001350  75.4716  48.5423 15.62938177  7441","2022-119T","53903","6757.312","92.134","380.089","378.265","0"
"GENERATED VIA SPACETRACK.ORG API","18 SPCS","53903","STARLINK-5022","PAYLOAD","U","22119T","2022-11-08 14:00:01","224","15.62708242","0.0001314","53.2176","32.339","84.9374","148.1897","0","999","130","-0.014937","-0.01225292","0","3648805","0 STARLINK-5022","1 53903U 22119T   22312.58334491 -.01225292  00000-0 -14937-1 0  9992","2 53903  53.2176  32.3390 0001314  84.9374 148.1897 15.62708242  1309","2022-119T","53903","6757.975","92.148","380.728","378.952","0"
"GENERATED VIA SPACETRACK.ORG API","18 SPCS","53903","STARLINK-5022","PAYLOAD","U","22119T","2022-11-08 22:00:00","999936","15.61831704","0.0001097","53.2172","30.7142","70.3677","238.5334","0","999","750","-0.014338","-0.01144731","0","3648875","0 STARLINK-5022","1 53903U 22119T   22312.91667824 -.01144731  00000-0 -14338-1 0  9991","2 53903  53.2172  30.7142 0001097  70.3677 238.5334 15.61831704  7502","2022-119T","53903","6760.503","92.199","383.110","381.627","0"
"GENERATED VIA SPACETRACK.ORG API","18 SPCS","53903","STARLINK-5022","PAYLOAD","U","22119T","2022-11-08 22:00:00","999936","15.61831704","0.0001097","53.2172","30.7142","70.3677","238.5334","0","999","130","-0.014338","-0.01144731","0","3649076","0 STARLINK-5022","1 53903U 22119T   22312.91667824 -.01144731  00000-0 -14338-1 0  9991","2 53903  53.2172  30.7142 0001097  70.3677 238.5334 15.61831704  1304","2022-119T","53903","6760.503","92.199","383.110","381.627","0"
"GENERATED VIA SPACETRACK.ORG API","18 SPCS","53903","STARLINK-5022","PAYLOAD","U","22119T","2022-11-09 14:00:01","224","15.60230992","0.0001276","53.2174","27.4765","66.0257","31.4068","0","999","130","-0.015743","-0.01177584","0","3649526","0 STARLINK-5022","1 53903U 22119T   22313.58334491 -.01177584  00000-0 -15743-1 0  9999","2 53903  53.2174  27.4765 0001276  66.0257  31.4068 15.60230992  1300","2022-119T","53903","6765.126","92.294","387.855","386.128","0"
"GENERATED VIA SPACETRACK.ORG API","18 SPCS","53903","STARLINK-5022","PAYLOAD","U","22119T","2022-11-09 22:00:01","999584","15.59384482","0.0001287","53.2174","25.8569","63.7848","106.5375","0","999","766","-0.015606","-0.0113444","0","3649583","0 STARLINK-5022","1 53903U 22119T   22313.91668981 -.01134440  00000-0 -15606-1 0  9992","2 53903  53.2174  25.8569 0001287  63.7848 106.5375 15.59384482  7668","2022-119T","53903","6767.574","92.344","390.310","388.568","0"
"GENERATED VIA SPACETRACK.ORG API","18 SPCS","53903","STARLINK-5022","PAYLOAD","U","22119T","2022-11-09 22:00:01","999584","15.59384482","0.0001287","53.2174","25.8569","63.7848","106.5375","0","999","130","-0.015606","-0.0113444","0","3650001","0 STARLINK-5022","1 53903U 22119T   22313.91668981 -.01134440  00000-0 -15606-1 0  9992","2 53903  53.2174  25.8569 0001287  63.7848 106.5375 15.59384482  1303","2022-119T","53903","6767.574","92.344","390.310","388.568","0"
"GENERATED VIA SPACETRACK.ORG API","18 SPCS","53903","STARLINK-5022","PAYLOAD","U","22119T","2022-11-10 14:00:01","224","15.57778075","0.000115","53.2175","22.6314","70.8233","242.1017","0","999","130","-0.017032","-0.01161604","0","3650424","0 STARLINK-5022","1 53903U 22119T   22314.58334491 -.01161604  00000-0 -17032-1 0  9999","2 53903  53.2175  22.6314 0001150  70.8233 242.1017 15.57778075  1306","2022-119T","53903","6772.226","92.439","394.870","393.312","0"
"GENERATED VIA SPACETRACK.ORG API","18 SPCS","53903","STARLINK-5022","PAYLOAD","U","22119T","2022-11-10 20:00:01","224","15.57162737","0.0001218","53.2171","21.4218","65.3492","210.0758","0","999","780","-0.017331","-0.0115552","0","3650527","0 STARLINK-5022","1 53903U 22119T   22314.83334491 -.01155520  00000-0 -17331-1 0  9999","2 53903  53.2171  21.4218 0001218  65.3492 210.0758 15.57162737  7802","2022-119T","53903","6774.010","92.476","396.700","395.050","0"
"GENERATED VIA SPACETRACK.ORG API","18 SPCS","53903","STARLINK-5022","PAYLOAD","U","22119T","2022-11-10 22:00:00","999936","15.56944113","0.0001171","53.2175","21.0181","59.7875","323.0222","0","999","130","-0.017129","-0.01134856","0","3650843","0 STARLINK-5022","1 53903U 22119T   22314.91667824 -.01134856  00000-0 -17129-1 0  9991","2 53903  53.2175  21.0181 0001171  59.7875 323.0222 15.56944113  1306","2022-119T","53903","6774.644","92.489","397.303","395.716","0"
"GENERATED VIA SPACETRACK.ORG API","18 SPCS","53903","STARLINK-5022","PAYLOAD","U","22119T","2022-11-11 14:00:01","224","15.55321385","0.0001411","53.2174","17.8042","61.663","97.955","0","999","130","-0.018274","-0.01139103","0","3651496","0 STARLINK-5022","1 53903U 22119T   22315.58334491 -.01139103  00000-0 -18274-1 0  9998","2 53903  53.2174  17.8042 0001411  61.6630  97.9550 15.55321385  1302","2022-119T","53903","6779.356","92.585","402.177","400.264","0"
"GENERATED VIA SPACETRACK.ORG API","18 SPCS","53903","STARLINK-5022","PAYLOAD","U","22119T","2022-11-11 22:00:00","999936","15.54517099","0.0001374","53.2173","16.1975","57.1852","169.3692","0","999","797","-0.019076","-0.01152718","0","3651555","0 STARLINK-5022","1 53903U 22119T   22315.91667824 -.01152718  00000-0 -19076-1 0  9992","2 53903  53.2173  16.1975 0001374  57.1852 169.3692 15.54517099  7970","2022-119T","53903","6781.694","92.633","404.491","402.627","0"
"GENERATED VIA SPACETRACK.ORG API","18 SPCS","53903","STARLINK-5022","PAYLOAD","U","22119T","2022-11-11 22:00:00","999936","15.54517099","0.0001374","53.2173","16.1975","57.1852","169.3692","0","999","130","-0.019076","-0.01152718","0","3651775","0 STARLINK-5022","1 53903U 22119T   22315.91667824 -.01152718  00000-0 -19076-1 0  9992","2 53903  53.2173  16.1975 0001374  57.1852 169.3692 15.54517099  1301","2022-119T","53903","6781.694","92.633","404.491","402.627","0"
"GENERATED VIA SPACETRACK.ORG API","18 SPCS","53903","STARLINK-5022","PAYLOAD","U","22119T","2022-11-12 14:00:01","224","15.52876903","0.000121","53.2171","12.9947","59.7971","297.7078","0","999","130","-0.019914","-0.01134929","0","3652392","0 STARLINK-5022","1 53903U 22119T   22316.58334491 -.01134929  00000-0 -19914-1 0  9992","2 53903  53.2171  12.9947 0001210  59.7971 297.7078 15.52876903  1305","2022-119T","53903","6786.468","92.731","409.154","407.512","0"
